CSS (TIANHE)            
1 48274U 21035A   23237.04459221  .00020754  00000+0  24127-3 0  9996
2 48274  41.4725  97.2903 0010192 230.4300 129.5639 15.61173573132599
